{
  "norad_id": 40921,
  "name": "COSMOS 2508 (RODNIK-S 14)",
  "history": [
    {
      "epoch": "2026-04-11T20:37:02.885952Z",
      "apogee_km": 1505.6993984008823,
      "perigee_km": 1482.8662319689201,
      "latitude_deg": -3.690019219888138e-05,
      "longitude_deg": -29.83203756987903,
      "height_km": 1507.8917584657042,
      "semi_major_axis_km": 7872.4198151849005,
      "eccentricity": 0.0014502,
      "inclination_deg": 82.4839,
      "raan_deg": 119.5025,
      "arg_perigee_deg": 162.9616,
      "mean_anomaly_deg": 197.1953,
      "mean_motion_rev_day": 12.42912035
    },
    {
      "epoch": "2026-04-13T05:27:34.788672Z",
      "apogee_km": 1505.7376862082,
      "perigee_km": 1482.8319302665168,
      "latitude_deg": 7.815890657386041e-05,
      "longitude_deg": -164.66653208836556,
      "height_km": 1507.7424306992527,
      "semi_major_axis_km": 7872.421808237358,
      "eccentricity": 0.00145481,
      "inclination_deg": 82.4837,
      "raan_deg": 118.6497,
      "arg_perigee_deg": 160.053,
      "mean_anomaly_deg": 200.1122,
      "mean_motion_rev_day": 12.42911563
    },
    {
      "epoch": "2026-04-14T20:05:51.049824Z",
      "apogee_km": 1505.7845614771823,
      "perigee_km": 1482.7782059925548,
      "latitude_deg": -2.932556745866624e-05,
      "longitude_deg": -26.82469941058113,
      "height_km": 1507.5289761050462,
      "semi_major_axis_km": 7872.418383734868,
      "eccentricity": 0.0014612,
      "inclination_deg": 82.4834,
      "raan_deg": 117.6461,
      "arg_perigee_deg": 156.6082,
      "mean_anomaly_deg": 203.5665,
      "mean_motion_rev_day": 12.42912374
    },
    {
      "epoch": "2026-04-15T19:16:48.830016Z",
      "apogee_km": 1505.8153139599626,
      "perigee_km": 1482.7491256459389,
      "latitude_deg": 5.430479146450849e-05,
      "longitude_deg": -16.119717720684573,
      "height_km": 1507.3863583832995,
      "semi_major_axis_km": 7872.4192198029505,
      "eccentricity": 0.001465,
      "inclination_deg": 82.4831,
      "raan_deg": 117.0439,
      "arg_perigee_deg": 154.5686,
      "mean_anomaly_deg": 205.6118,
      "mean_motion_rev_day": 12.42912176
    },
    {
      "epoch": "2026-04-16T20:23:41.369568Z",
      "apogee_km": 1505.8306549147674,
      "perigee_km": 1482.7282615764007,
      "latitude_deg": 3.027693138123468e-05,
      "longitude_deg": -34.522453413970275,
      "height_km": 1507.1992563418387,
      "semi_major_axis_km": 7872.416458245583,
      "eccentricity": 0.0014673,
      "inclination_deg": 82.4827,
      "raan_deg": 116.3915,
      "arg_perigee_deg": 152.3553,
      "mean_anomaly_deg": 207.831,
      "mean_motion_rev_day": 12.4291283
    },
    {
      "epoch": "2026-04-17T23:26:28.728960Z",
      "apogee_km": 1505.8615730570373,
      "perigee_km": 1482.6957304152993,
      "latitude_deg": 1.9680785458697698e-05,
      "longitude_deg": -82.03304401342872,
      "height_km": 1506.9945761883685,
      "semi_major_axis_km": 7872.415651736168,
      "eccentricity": 0.00147133,
      "inclination_deg": 82.4823,
      "raan_deg": 115.689,
      "arg_perigee_deg": 149.9904,
      "mean_anomaly_deg": 210.2022,
      "mean_motion_rev_day": 12.42913021
    },
    {
      "epoch": "2026-04-18T20:41:31.679808Z",
      "apogee_km": 1505.8809235153876,
      "perigee_km": 1482.6793357509341,
      "latitude_deg": -2.5229732579508075e-05,
      "longitude_deg": -42.219985244269814,
      "height_km": 1506.8161507908546,
      "semi_major_axis_km": 7872.417129633161,
      "eccentricity": 0.0014736,
      "inclination_deg": 82.4821,
      "raan_deg": 115.1371,
      "arg_perigee_deg": 148.1247,
      "mean_anomaly_deg": 212.0727,
      "mean_motion_rev_day": 12.42912671
    },
    {
      "epoch": "2026-04-19T19:52:29.401248Z",
      "apogee_km": 1505.921323709369,
      "perigee_km": 1482.6362922325525,
      "latitude_deg": -3.8738736259206435e-05,
      "longitude_deg": -31.5145737356443,
      "height_km": 1506.6271920259708,
      "semi_major_axis_km": 7872.4158079709605,
      "eccentricity": 0.0014789,
      "inclination_deg": 82.4821,
      "raan_deg": 114.5351,
      "arg_perigee_deg": 146.1143,
      "mean_anomaly_deg": 214.0884,
      "mean_motion_rev_day": 12.42912984
    },
    {
      "epoch": "2026-04-20T13:15:42.748704Z",
      "apogee_km": 1505.9545246482521,
      "perigee_km": 1482.6116968810193,
      "latitude_deg": 3.953602976774002e-05,
      "longitude_deg": 66.51446030645103,
      "height_km": 1506.4745136795732,
      "semi_major_axis_km": 7872.420110764635,
      "eccentricity": 0.00148257,
      "inclination_deg": 82.4822,
      "raan_deg": 114.0838,
      "arg_perigee_deg": 144.5611,
      "mean_anomaly_deg": 215.6457,
      "mean_motion_rev_day": 12.42911965
    },
    {
      "epoch": "2026-04-21T20:10:19.720992Z",
      "apogee_km": 1505.9786761329324,
      "perigee_km": 1482.5834241714892,
      "latitude_deg": -3.4616376257075045e-05,
      "longitude_deg": -39.211543506071486,
      "height_km": 1506.1657369279073,
      "semi_major_axis_km": 7872.4180501522105,
      "eccentricity": 0.0014859,
      "inclination_deg": 82.4826,
      "raan_deg": 113.2813,
      "arg_perigee_deg": 141.8904,
      "mean_anomaly_deg": 218.3229,
      "mean_motion_rev_day": 12.42912453
    },
    {
      "epoch": "2026-04-22T19:21:17.472672Z",
      "apogee_km": 1505.998188024064,
      "perigee_km": 1482.5635744751607,
      "latitude_deg": 9.369222068701162e-06,
      "longitude_deg": -28.506052127043205,
      "height_km": 1505.9122807025515,
      "semi_major_axis_km": 7872.417881249612,
      "eccentricity": 0.0014884,
      "inclination_deg": 82.483,
      "raan_deg": 112.6795,
      "arg_perigee_deg": 139.8187,
      "mean_anomaly_deg": 220.3996,
      "mean_motion_rev_day": 12.42912493
    },
    {
      "epoch": "2026-04-23T14:40:25.640832Z",
      "apogee_km": 1506.0326167312369,
      "perigee_km": 1482.5370588594642,
      "latitude_deg": 1.9957733967013908e-05,
      "longitude_deg": 40.41501321397302,
      "height_km": 1505.7108775361926,
      "semi_major_axis_km": 7872.42183779535,
      "eccentricity": 0.00149227,
      "inclination_deg": 82.4832,
      "raan_deg": 112.178,
      "arg_perigee_deg": 138.1281,
      "mean_anomaly_deg": 222.0943,
      "mean_motion_rev_day": 12.42911556
    },
    {
      "epoch": "2026-04-24T19:39:07.777728Z",
      "apogee_km": 1506.0539165945465,
      "perigee_km": 1482.5090873388635,
      "latitude_deg": 3.125133794146979e-05,
      "longitude_deg": -36.20305655554437,
      "height_km": 1505.3733204954915,
      "semi_major_axis_km": 7872.418501966705,
      "eccentricity": 0.0014954,
      "inclination_deg": 82.4834,
      "raan_deg": 111.4256,
      "arg_perigee_deg": 135.6289,
      "mean_anomaly_deg": 224.5992,
      "mean_motion_rev_day": 12.42912346
    },
    {
      "epoch": "2026-04-25T18:50:05.512992Z",
      "apogee_km": 1506.08122478341,
      "perigee_km": 1482.4812893324015,
      "latitude_deg": -9.790325333700154e-06,
      "longitude_deg": -25.497705585493577,
      "height_km": 1505.0944250319458,
      "semi_major_axis_km": 7872.418257057905,
      "eccentricity": 0.0014989,
      "inclination_deg": 82.4834,
      "raan_deg": 110.8236,
      "arg_perigee_deg": 133.6025,
      "mean_anomaly_deg": 226.6301,
      "mean_motion_rev_day": 12.42912404
    },
    {
      "epoch": "2026-04-26T21:52:52.835232Z",
      "apogee_km": 1506.1133966575326,
      "perigee_km": 1482.4452918152401,
      "latitude_deg": 5.228101859596067e-06,
      "longitude_deg": -73.00813851839297,
      "height_km": 1504.7667458994158,
      "semi_major_axis_km": 7872.416344236386,
      "eccentricity": 0.00150323,
      "inclination_deg": 82.4831,
      "raan_deg": 110.1211,
      "arg_perigee_deg": 131.3198,
      "mean_anomaly_deg": 228.9178,
      "mean_motion_rev_day": 12.42912857
    },
    {
      "epoch": "2026-04-27T19:07:55.735968Z",
      "apogee_km": 1506.1273314974178,
      "perigee_km": 1482.4297861821979,
      "latitude_deg": -2.7375190188818316e-05,
      "longitude_deg": -33.19486807642266,
      "height_km": 1504.4773335446803,
      "semi_major_axis_km": 7872.415558839808,
      "eccentricity": 0.0015051,
      "inclination_deg": 82.483,
      "raan_deg": 109.5692,
      "arg_perigee_deg": 129.4332,
      "mean_anomaly_deg": 230.8082,
      "mean_motion_rev_day": 12.42913043
    },
    {
      "epoch": "2026-04-28T20:14:48.241824Z",
      "apogee_km": 1506.1503566939837,
      "perigee_km": 1482.405578668464,
      "latitude_deg": 7.284101048961999e-05,
      "longitude_deg": -51.597447906588215,
      "height_km": 1504.139422554529,
      "semi_major_axis_km": 7872.414967681224,
      "eccentricity": 0.0015081,
      "inclination_deg": 82.4827,
      "raan_deg": 108.9168,
      "arg_perigee_deg": 127.2732,
      "mean_anomaly_deg": 232.9726,
      "mean_motion_rev_day": 12.42913183
    },
    {
      "epoch": "2026-04-29T21:21:40.744224Z",
      "apogee_km": 1506.1726109029396,
      "perigee_km": 1482.3837467156145,
      "latitude_deg": -1.8399215206053757e-05,
      "longitude_deg": -69.99993886513889,
      "height_km": 1503.7906865645243,
      "semi_major_axis_km": 7872.415178809277,
      "eccentricity": 0.0015109,
      "inclination_deg": 82.4825,
      "raan_deg": 108.2645,
      "arg_perigee_deg": 125.118,
      "mean_anomaly_deg": 235.1318,
      "mean_motion_rev_day": 12.42913133
    },
    {
      "epoch": "2026-04-30T14:44:54.025152Z",
      "apogee_km": 1506.2000387789176,
      "perigee_km": 1482.3590550598956,
      "latitude_deg": -4.8067889980321216e-05,
      "longitude_deg": 28.02906013872224,
      "height_km": 1503.5421067719158,
      "semi_major_axis_km": 7872.416546919406,
      "eccentricity": 0.00151421,
      "inclination_deg": 82.4824,
      "raan_deg": 107.8129,
      "arg_perigee_deg": 123.5809,
      "mean_anomaly_deg": 236.6718,
      "mean_motion_rev_day": 12.42912809
    }
  ]
}